[{"OBJECT_NAME":"STARLINK-6070","OBJECT_ID":"2023-078AM","EPOCH":"2026-03-09T22:00:01.999584","MEAN_MOTION":15.33868458,"ECCENTRICITY":0.00035577,"INCLINATION":70.001,"RA_OF_ASC_NODE":321.9382,"ARG_OF_PERICENTER":287.8141,"MEAN_ANOMALY":182.2971,"EPHEMERIS_TYPE":0,"CLASSIFICATION_TYPE":"U","NORAD_CAT_ID":56802,"ELEMENT_SET_NO":999,"REV_AT_EPOCH":575,"BSTAR":0.031099255,"MEAN_MOTION_DOT":0.0111992,"MEAN_MOTION_DDOT":0},{"OBJECT_NAME":"CZ-3B R\/B","OBJECT_ID":"2025-242B","EPOCH":"2026-03-09T23:21:03.481344","MEAN_MOTION":15.5164095,"ECCENTRICITY":0.00825533,"INCLINATION":97.4288,"RA_OF_ASC_NODE":149.5204,"ARG_OF_PERICENTER":271.8106,"MEAN_ANOMALY":87.3693,"EPHEMERIS_TYPE":0,"CLASSIFICATION_TYPE":"U","NORAD_CAT_ID":66176,"ELEMENT_SET_NO":999,"REV_AT_EPOCH":2083,"BSTAR":0.00075343926,"MEAN_MOTION_DOT":0.00051826,"MEAN_MOTION_DDOT":0}]
